KAITUO 1B               
1 40912U 15049P   17271.06455756  .00001884  00000-0  95921-4 0  9992
2 40912  97.4527 277.2430 0015029 197.3574 234.7138 15.17949262111894
TIANWANG 1C (TW-1C)     
1 40926U 15051B   17271.07890941  .00011249  00000-0  24493-3 0  9991
2 40926  97.2192 309.8869 0012327 148.5949 241.0098 15.44367698112798
TIANWANG 1B (TW-1B)     
1 40927U 15051C   17271.10293887  .00010688  00000-0  24192-3 0  9994
2 40927  97.2290 309.8821 0011918 156.7733 283.2248 15.43231608112732
TIANWANG 1A (TW-1A)     
1 40928U 15051D   17271.11822259  .00004715  00000-0  13272-3 0  9998
2 40928  97.2182 305.0801 0012499 179.0139 261.5020 15.36877017112506
LAPAN-A2 (IO-86)        
1 40931U 15052B   17271.11783726  .00000673  00000-0  45213-5 0  9999
2 40931   5.9963 218.7597 0014279 261.1453  98.7736 14.76544217108207
LQSAT                   
1 40958U 15057A   17271.23106633  .00000129  00000-0  27836-4 0  9998
2 40958  97.9691 344.7098 0019746  96.8906 263.4597 14.72987621106289
CHUBUSAT-2              
1 41338U 16012B   17271.11280106  .00000762  00000-0  53226-4 0  9993
2 41338  31.0029 178.5433 0013847 357.7526   2.3046 14.99814642 88453
CHUBUSAT-3              
1 41339U 16012C   17271.09363043  .00000520  00000-0  33985-4 0  9995
2 41339  31.0100 177.6454 0013267   3.8514 356.2225 15.00013539 88436
OUFTI-1                 
1 41458U 16025C   17270.54547969  .00002189  00000-0  12009-3 0  9997
2 41458  98.1744 313.9618 0172478 307.7776  50.7934 15.03621931 77951
E-ST@R-II               
1 41459U 16025D   17270.57804671  .00002183  00000-0  12059-3 0  9996
2 41459  98.1771 313.9272 0172087 308.2048  50.3788 15.03442852 77958
AAUSAT 4                
1 41460U 16025E   17271.17579802  .00003030  00000-0  16514-3 0  9992
2 41460  98.1690 314.7289 0163994 303.7421  54.8266 15.04494972 78074
NUSAT 1 (LO-87)         
1 41557U 16033B   17271.20979811  .00004575  00000-0  17273-3 0  9994
2 41557  97.4568 350.7144 0014216  10.6963 349.4575 15.27435828 74155
BEESAT-4                
1 41619U 16040W   17270.16883372  .00002858  00000-0  13120-3 0  9990
2 41619  97.4519 331.5361 0013516  74.7919 285.4810 15.21150278 58095
PRATHAM                 
1 41783U 16059A   17270.41958214  .00000126  00000-0  34025-4 0  9992
2 41783  98.1565 330.6799 0033286 198.1541 161.8475 14.62862033 53541
ALSAT 1N                
1 41789U 16059G   17271.21188411  .00000610  00000-0  12484-3 0  9993
2 41789  98.1571 332.1653 0028480 188.3786 171.6967 14.64080807 53685
NAYIF-1 (EO-88)         
1 42017U 17008BX  17270.59070243  .00003523  00000-0  15106-3 0  9996
2 42017  97.4847 331.8140 0005724 209.3427 150.7489 15.23401723 34076
LILACSAT-1              
1 42725U 98067ME  17271.15270697  .00046038  00000-0  60455-3 0  9999
2 42725  51.6385 243.2814 0005993 348.8855  11.2004 15.58031063 19517
MAX VALIER SAT          
1 42778U 17036P   17270.35725018  .00002215  00000-0  10411-3 0  9993
2 42778  97.4414 328.9523 0011184 269.3649  90.6305 15.20605814 14555
